STARLINK-32909          
1 62894U 25024R   26068.10627643  .00031821  00000+0  11612-2 0  9990
2 62894  43.0022 328.9255 0001476 288.4583  71.6108 15.27571188 62176
STARLINK-36554          
1 67502U 26012K   26067.71268370  .00032833  00000+0  11969-2 0  9992
2 67502  42.9934 319.8184 0000695 339.2059  20.8765 15.27591469  7619
